start=new Date('2022-10-25T00:00:00.000Z').valueOf();
sats=[{"SITE":"AFETR","TLE_LINE2":"2 45221  53.0521 137.1237 0001289 127.2898 232.8208 15.06388546149716","RA_OF_ASC_NODE":"137.1237","ELEMENT_SET_NO":"999","EPOCH":"2022-10-24T17:25:10.484256","FILE":"3631857","PERIOD":"95.593","OBJECT_TYPE":"PAYLOAD","ARG_OF_PERICENTER":"127.2898","MEAN_MOTION_DDOT":"0.0000000000000","NORAD_CAT_ID":"45221","OBJECT_NAME":"STARLINK-1189","RCS_SIZE":"LARGE","MEAN_MOTION_DOT":"-0.00003076","COUNTRY_CODE":"US","PERIAPSIS":"546.356","CENTER_NAME":"EARTH","BSTAR":"-0.00018776000000","CLASSIFICATION_TYPE":"U","MEAN_ELEMENT_THEORY":"SGP4","TIME_SYSTEM":"UTC","MEAN_ANOMALY":"232.8208","SEMIMAJOR_AXIS":"6925.384","REF_FRAME":"TEME","GP_ID":"216067924","DECAY_DATE":null,"LAUNCH_DATE":"2020-02-17","INCLINATION":"53.0521","ECCENTRICITY":"0.00012890","TLE_LINE1":"1 45221U 20012AV  22297.72581579 -.00003076  00000-0 -18776-3 0  9995","REV_AT_EPOCH":"14971","OBJECT_ID":"2020-012AV","APOAPSIS":"548.141","EPHEMERIS_TYPE":"0","MEAN_MOTION":"15.06388546"},{"OBJECT_ID":"2020-012AW","REV_AT_EPOCH":"14960","APOAPSIS":"548.106","EPHEMERIS_TYPE":"0","MEAN_MOTION":"15.06398166","DECAY_DATE":null,"LAUNCH_DATE":"2020-02-17","ECCENTRICITY":"0.00012810","TLE_LINE1":"1 45222U 20012AW  22297.00336394  .00001293  00000-0  10566-3 0  9996","INCLINATION":"53.0555","MEAN_ANOMALY":"254.9820","TIME_SYSTEM":"UTC","REF_FRAME":"TEME","SEMIMAJOR_AXIS":"6925.354","CLASSIFICATION_TYPE":"U","MEAN_ELEMENT_THEORY":"SGP4","GP_ID":"216035135","PERIAPSIS":"546.332","CENTER_NAME":"EARTH","BSTAR":"0.00010566000000","MEAN_MOTION_DOT":"0.00001293","OBJECT_NAME":"STARLINK-1191","NORAD_CAT_ID":"45222","RCS_SIZE":"LARGE","COUNTRY_CODE":"US","OBJECT_TYPE":"PAYLOAD","MEAN_MOTION_DDOT":"0.0000000000000","ARG_OF_PERICENTER":"105.1310","RA_OF_ASC_NODE":"140.3614","ELEMENT_SET_NO":"999","FILE":"3631438","PERIOD":"95.592","EPOCH":"2022-10-24T00:04:50.644416","TLE_LINE2":"2 45222  53.0555 140.3614 0001281 105.1310 254.9820 15.06398166149607","SITE":"AFETR"},{"COUNTRY_CODE":"US","NORAD_CAT_ID":"45223","OBJECT_NAME":"STARLINK-1212","RCS_SIZE":"LARGE","MEAN_MOTION_DOT":"-0.00000457","ARG_OF_PERICENTER":"115.9377","MEAN_MOTION_DDOT":"0.0000000000000","OBJECT_TYPE":"PAYLOAD","EPOCH":"2022-10-24T19:41:49.210944","FILE":"3631857","PERIOD":"95.593","RA_OF_ASC_NODE":"136.6741","ELEMENT_SET_NO":"999","SITE":"AFETR","TLE_LINE2":"2 45223  53.0532 136.6741 0001279 115.9377 244.1744 15.06388287149734","EPHEMERIS_TYPE":"0","MEAN_MOTION":"15.06388287","OBJECT_ID":"2020-012AX","REV_AT_EPOCH":"14973","APOAPSIS":"548.135","INCLINATION":"53.0532","ECCENTRICITY":"0.00012790","TLE_LINE1":"1 45223U 20012AX  22297.82070846 -.00000457  00000-0 -11819-4 0  9990","LAUNCH_DATE":"2020-02-17","DECAY_DATE":null,"GP_ID":"216068925","CLASSIFICATION_TYPE":"U","MEAN_ELEMENT_THEORY":"SGP4","MEAN_ANOMALY":"244.1744","TIME_SYSTEM":"UTC","SEMIMAJOR_AXIS":"6925.384","REF_FRAME":"TEME","CENTER_NAME":"EARTH","BSTAR":"-0.00001181900000","PERIAPSIS":"546.364"},{"COUNTRY_CODE":"US","MEAN_MOTION_DOT":"-0.00000533","NORAD_CAT_ID":"45225","OBJECT_NAME":"STARLINK-1215","RCS_SIZE":"LARGE","MEAN_MOTION_DDOT":"0.0000000000000","ARG_OF_PERICENTER":"113.6989","OBJECT_TYPE":"PAYLOAD","FILE":"3631857","PERIOD":"95.593","EPOCH":"2022-10-24T16:58:38.231616","RA_OF_ASC_NODE":"137.1990","ELEMENT_SET_NO":"999","TLE_LINE2":"2 45225  53.0544 137.1990 0001474 113.6989 246.4154 15.06388166149660","SITE":"AFETR","EPHEMERIS_TYPE":"0","MEAN_MOTION":"15.06388166","OBJECT_ID":"2020-012AZ","REV_AT_EPOCH":"14966","APOAPSIS":"548.271","ECCENTRICITY":"0.00014740","TLE_LINE1":"1 45225U 20012AZ  22297.70738694 -.00000533  00000-0 -16888-4 0  9997","INCLINATION":"53.0544","DECAY_DATE":null,"LAUNCH_DATE":"2020-02-17","GP_ID":"216068174","MEAN_ANOMALY":"246.4154","TIME_SYSTEM":"UTC","SEMIMAJOR_AXIS":"6925.385","REF_FRAME":"TEME","CLASSIFICATION_TYPE":"U","MEAN_ELEMENT_THEORY":"SGP4","CENTER_NAME":"EARTH","BSTAR":"-0.00001688800000","PERIAPSIS":"546.229"},{"PERIAPSIS":"546.319","CENTER_NAME":"EARTH","BSTAR":"-0.00003041500000","CLASSIFICATION_TYPE":"U","MEAN_ELEMENT_THEORY":"SGP4","MEAN_ANOMALY":"237.9932","TIME_SYSTEM":"UTC","REF_FRAME":"TEME","SEMIMAJOR_AXIS":"6925.394","GP_ID":"216068424","LAUNCH_DATE":"2020-02-17","DECAY_DATE":null,"INCLINATION":"53.0550","ECCENTRICITY":"0.00013580","TLE_LINE1":"1 45226U 20012BA  22297.84745452 -.00000734  00000-0 -30415-4 0  9998","OBJECT_ID":"2020-012BA","REV_AT_EPOCH":"14964","APOAPSIS":"548.200","EPHEMERIS_TYPE":"0","MEAN_MOTION":"15.06385032","SITE":"AFETR","TLE_LINE2":"2 45226  53.0550 136.5839 0001358 122.1189 237.9932 15.06385032149647","RA_OF_ASC_NODE":"136.5839","ELEMENT_SET_NO":"999","EPOCH":"2022-10-24T20:20:20.070528","FILE":"3631857","PERIOD":"95.593","OBJECT_TYPE":"PAYLOAD","ARG_OF_PERICENTER":"122.1189","MEAN_MOTION_DDOT":"0.0000000000000","OBJECT_NAME":"STARLINK-1217","NORAD_CAT_ID":"45226","RCS_SIZE":"LARGE","MEAN_MOTION_DOT":"-0.00000734","COUNTRY_CODE":"US"},{"MEAN_MOTION_DOT":"-0.00000706","NORAD_CAT_ID":"45227","OBJECT_NAME":"STARLINK-1221","RCS_SIZE":"LARGE","COUNTRY_CODE":"US","OBJECT_TYPE":"PAYLOAD","MEAN_MOTION_DDOT":"0.0000000000000","ARG_OF_PERICENTER":"122.3634","RA_OF_ASC_NODE":"137.0806","ELEMENT_SET_NO":"999","FILE":"3631857","PERIOD":"95.593","EPOCH":"2022-10-24T17:41:06.124416","TLE_LINE2":"2 45227  53.0554 137.0806 0001402 122.3634 237.7491 15.06388788149637","SITE":"AFETR","OBJECT_ID":"2020-012BB","REV_AT_EPOCH":"14963","APOAPSIS":"548.219","EPHEMERIS_TYPE":"0","MEAN_MOTION":"15.06388788","LAUNCH_DATE":"2020-02-17","DECAY_DATE":null,"ECCENTRICITY":"0.00014020","TLE_LINE1":"1 45227U 20012BB  22297.73687644 -.00000706  00000-0 -28502-4 0  9998","INCLINATION":"53.0554","TIME_SYSTEM":"UTC","MEAN_ANOMALY":"237.7491","SEMIMAJOR_AXIS":"6925.383","REF_FRAME":"TEME","CLASSIFICATION_TYPE":"U","MEAN_ELEMENT_THEORY":"SGP4","GP_ID":"216068676","PERIAPSIS":"546.277","CENTER_NAME":"EARTH","BSTAR":"-0.00002850200000"},{"EPHEMERIS_TYPE":"0","MEAN_MOTION":"15.06390569","REV_AT_EPOCH":"14957","OBJECT_ID":"2020-012BC","APOAPSIS":"548.187","ECCENTRICITY":"0.00013640","TLE_LINE1":"1 45228U 20012BC  22297.54152423 -.00001083  00000-0 -53849-4 0  9991","INCLINATION":"53.0554","DECAY_DATE":null,"LAUNCH_DATE":"2020-02-17","GP_ID":"216035385","MEAN_ANOMALY":"257.0069","TIME_SYSTEM":"UTC","SEMIMAJOR_AXIS":"6925.377","REF_FRAME":"TEME","CLASSIFICATION_TYPE":"U","MEAN_ELEMENT_THEORY":"SGP4","CENTER_NAME":"EARTH","BSTAR":"-0.00005384900000","PERIAPSIS":"546.298","COUNTRY_CODE":"US","MEAN_MOTION_DOT":"-0.00001083","OBJECT_NAME":"STARLINK-1222","NORAD_CAT_ID":"45228","RCS_SIZE":"LARGE","MEAN_MOTION_DDOT":"0.0000000000000","ARG_OF_PERICENTER":"103.1072","OBJECT_TYPE":"PAYLOAD","FILE":"3631438","PERIOD":"95.593","EPOCH":"2022-10-24T12:59:47.693472","RA_OF_ASC_NODE":"137.9540","ELEMENT_SET_NO":"999","TLE_LINE2":"2 45228  53.0554 137.9540 0001364 103.1072 257.0069 15.06390569149571","SITE":"AFETR"},{"PERIAPSIS":"546.341","CENTER_NAME":"EARTH","BSTAR":"-0.00011248000000","MEAN_ANOMALY":"258.2596","TIME_SYSTEM":"UTC","SEMIMAJOR_AXIS":"6925.393","REF_FRAME":"TEME","CLASSIFICATION_TYPE":"U","MEAN_ELEMENT_THEORY":"SGP4","GP_ID":"216067675","LAUNCH_DATE":"2020-02-17","DECAY_DATE":null,"ECCENTRICITY":"0.00013250","TLE_LINE1":"1 45229U 20012BD  22297.83639918 -.00001956  00000-0 -11248-3 0  9998","INCLINATION":"53.0539","OBJECT_ID":"2020-012BD","REV_AT_EPOCH":"14962","APOAPSIS":"548.176","EPHEMERIS_TYPE":"0","MEAN_MOTION":"15.06385432","TLE_LINE2":"2 45229  53.0539 136.6377 0001325 101.8542 258.2596 15.06385432149620","SITE":"AFETR","RA_OF_ASC_NODE":"136.6377","ELEMENT_SET_NO":"999","FILE":"3631857","PERIOD":"95.593","EPOCH":"2022-10-24T20:04:24.889152","OBJECT_TYPE":"PAYLOAD","MEAN_MOTION_DDOT":"0.0000000000000","ARG_OF_PERICENTER":"101.8542","MEAN_MOTION_DOT":"-0.00001956","NORAD_CAT_ID":"45229","OBJECT_NAME":"STARLINK-1226","RCS_SIZE":"LARGE","COUNTRY_CODE":"US"},{"MEAN_MOTION":"15.06386519","EPHEMERIS_TYPE":"0","APOAPSIS":"548.134","REV_AT_EPOCH":"14972","OBJECT_ID":"2020-012BE","TLE_LINE1":"1 45230U 20012BE  22297.70002238 -.00002711  00000-0 -16327-3 0  9998","ECCENTRICITY":"0.00012700","INCLINATION":"53.0547","LAUNCH_DATE":"2020-02-17","DECAY_DATE":null,"GP_ID":"216067925","REF_FRAME":"TEME","SEMIMAJOR_AXIS":"6925.390","TIME_SYSTEM":"UTC","MEAN_ANOMALY":"253.7258","MEAN_ELEMENT_THEORY":"SGP4","CLASSIFICATION_TYPE":"U","BSTAR":"-0.00016327000000","CENTER_NAME":"EARTH","PERIAPSIS":"546.375","COUNTRY_CODE":"US","MEAN_MOTION_DOT":"-0.00002711","RCS_SIZE":"LARGE","NORAD_CAT_ID":"45230","OBJECT_NAME":"STARLINK-1227","MEAN_MOTION_DDOT":"0.0000000000000","ARG_OF_PERICENTER":"106.3870","OBJECT_TYPE":"PAYLOAD","PERIOD":"95.593","FILE":"3631857","EPOCH":"2022-10-24T16:48:01.933632","ELEMENT_SET_NO":"999","RA_OF_ASC_NODE":"137.2392","TLE_LINE2":"2 45230  53.0547 137.2392 0001270 106.3870 253.7258 15.06386519149721","SITE":"AFETR"},{"LAUNCH_DATE":"2020-02-17","DECAY_DATE":null,"INCLINATION":"53.0531","TLE_LINE1":"1 45232U 20012BG  22297.71012395 -.00001338  00000-0 -70949-4 0  9991","ECCENTRICITY":"0.00015640","APOAPSIS":"548.327","OBJECT_ID":"2020-012BG","REV_AT_EPOCH":"14971","MEAN_MOTION":"15.06390137","EPHEMERIS_TYPE":"0","PERIAPSIS":"546.161","BSTAR":"-0.00007094900000","CENTER_NAME":"EARTH","MEAN_ELEMENT_THEORY":"SGP4","CLASSIFICATION_TYPE":"U","REF_FRAME":"TEME","SEMIMAJOR_AXIS":"6925.379","MEAN_ANOMALY":"248.3230","TIME_SYSTEM":"UTC","GP_ID":"216068926","OBJECT_TYPE":"PAYLOAD","ARG_OF_PERICENTER":"111.7925","MEAN_MOTION_DDOT":"0.0000000000000","RCS_SIZE":"LARGE","NORAD_CAT_ID":"45232","OBJECT_NAME":"STARLINK-1235","MEAN_MOTION_DOT":"-0.00001338","COUNTRY_CODE":"US","SITE":"AFETR","TLE_LINE2":"2 45232  53.0531 137.1855 0001564 111.7925 248.3230 15.06390137149716","ELEMENT_SET_NO":"999","RA_OF_ASC_NODE":"137.1855","EPOCH":"2022-10-24T17:02:34.709280","PERIOD":"95.593","FILE":"3631857"}];
